GLOBALSTAR M067         
1 32263U 07048A   25326.33638020 -.00000108  00000+0 -80330-4 0  9996
2 32263  51.9741 293.1703 0001249 343.5440 165.8036 12.40681629829118
GLOBALSTAR M070         
1 32264U 07048B   25326.42636949 -.00000075  00000+0  16314-3 0  9997
2 32264  51.9776   6.4386 0000489 126.9241 337.1084 12.62325973833658
GLOBALSTAR M066         
1 32265U 07048C   25326.26394971 -.00000090  00000+0  38290-4 0  9991
2 32265  51.9606 291.9290 0005031 335.8418 161.9045 12.30379593834755
GLOBALSTAR M068         
1 32266U 07048D   25325.90376117 -.00000061  00000+0  23928-3 0  9993
2 32266  51.9859 181.4798 0001998 101.5779   1.8038 12.62833772837484
GLOBALSTAR M079         
1 37188U 10054A   25326.14122869 -.00000089  00000+0  85072-4 0  9991
2 37188  52.0063  18.9487 0000172 158.4004 227.4163 12.62268631696401
GLOBALSTAR M074         
1 37189U 10054B   25326.33789594 -.00000121  00000+0 -95201-4 0  9990
2 37189  52.0046  17.6476 0000384  94.0019 346.0026 12.62263482697038
GLOBALSTAR M076         
1 37190U 10054C   25326.36443784 -.00000090  00000+0  74123-4 0  9997
2 37190  52.0054  17.7538 0000220  71.1357   8.1006 12.62267470696752
GLOBALSTAR M077         
1 37191U 10054D   25324.48812203 -.00000081  00000+0  52680-4 0  9999
2 37191  52.0123 350.3823 0008904  96.4865  78.3499 11.95391638696725
